#dP2021  6  2  6  0  0.00000000      96 __u+U ITR00 EXT  IAC
## 2160 280800.00000000   900.00000000 59367 0.2500000000000
+  116   C06C07C08C09C10C11C12C13C14C16C19C20C21C22C23C24C25
+        C26C27C28C29C30C32C33C34C35C36C37C38C39C40C41C42C43
+        C44C45C46E01E02E03E04E05E07E08E09E11E12E13E14E15E18
+        E19E21E24E25E26E27E30E31E33E36G01G02G03G04G05G06G07
+        G08G09G10G12G13G14G15G16G17G18G19G20G21G22G23G24G25
+        G26G27G28G29G30G31G32J01J02J03R01R02R03R04R05R07R08
+        R09R11R12R13R14R15R16R17R18R19R20R21R22R24  0  0  0
++         9 10 11  9  9  9  8 13  8  8  8  8  7  8  9  7 10
++         9  9  8  9  8  8  8  9 10 10  8 11 10  9  8  8  9
++         7  9  9  7  8  8  7  8  8  9  7  7  8  9  9  8  7
++         7  8  8  7  9  7  7  7  7  8  7  7  8  7  8  8  8
++         8  8  8  8  7  8  8  7  7  9  7  8  7  8  8  9  8
++         8  7  9  8  9  9  9 10  8 10  9  8  7  8  8  8  9
++         8  8  9 10  6  9  9  9  8  9  8  9  8  7  0  0  0
%c M  cc GPS ccc cccc cccc cccc cccc ccccc ccccc ccccc ccccc
%c cc cc ccc ccc cccc cccc cccc cccc ccccc ccccc ccccc ccccc
%f  0.0000000  0.000000000  0.00000000000  0.000000000000000
%f  0.0000000  0.000000000  0.00000000000  0.000000000000000
%i    0    0    0    0      0      0      0      0         0
%i    0    0    0    0      0      0      0      0         0
/* IAC                                ULTRA-RAPID PREDICTION
/* S/V CLOCKS ARE ALIGNED TO GNSS TIME                      
/* G:C1WC2W R:C1PC2P E:C1XC5X C:C2IC6I J:C1CC2S             
/* PCV:IGS14_2148 OL/AL:FES2004  NONE     YN ORB:CoN CLK:CoN
*  2021 06 02 23 45  0.00000000
PC06 -17876.397974  37679.790844  -3505.150403    457.381344
PC07  -9070.904524  27266.722480  31246.195942    114.771365
PC08 -22775.514425  20909.041920 -28753.157235   -892.209024
PC09  -8824.834595  39443.359582  11488.135628    477.185689
PC10   5942.134721  34351.175084  24240.924502    -34.677407
PC11   -386.216535  22852.318502 -15983.940469    377.182827
PC12 -13184.523499  24603.253420    425.102992    858.594452
PC13  -8857.680569  23579.897775 -33767.981702    285.076899
PC14  10414.422620  24897.562837  -7194.102532    904.163314
PC16 -16064.599945  38828.072659  -1281.400268   -874.950454
PC19 -16543.307287 -22351.713304  -2158.357616    858.105040
PC20  -3908.228779 -23718.991993  14164.444549   -891.315371
PC21 -11699.491763  10965.729047 -22818.200205   -937.140852
PC22 -19956.840495  -7948.172951 -17787.107090   -952.153459
PC23  27571.498962   1566.585952   4035.381977   -923.995053
PC24  -4836.150373  16153.711135  22233.440505   -876.335454
PC25  17207.095880  11923.640151  18440.375930   -907.274685
PC26 -21787.225557  11178.268788  13406.701458    898.178870
PC27  17586.367164 -19595.274433  -9297.040970    541.936755
PC28  17761.003191  -1945.084571 -21437.153216    -66.972125
PC29  -8177.772773 -16506.976810  20950.995672    400.801869
PC30   6505.120923 -26010.847739   7770.445511    469.262078
PC32  11678.730715 -11024.154177  22840.294792   -927.606593
PC33  16673.671663  22291.084800   2138.513076   -936.606871
PC34  -5966.030082  25899.992136  -8478.916590   -659.248429
PC35 -17628.626564   2124.099757  21509.629676   -251.477353
PC36 -16601.579470 -12459.649709 -18623.676846   -726.893516
PC37  22642.617291 -10207.335140 -12690.026774   -881.348518
PC38 -17999.002415  23842.287541 -29789.758528    152.757567
PC39 -12288.339670  40240.959939    327.621610     31.497983
PC40    527.693079  30626.652417  29061.569159    167.143363
PC41  20087.507179   8158.507976  17622.192283   -945.580716
PC42   3354.276292  23505.758160 -14630.183018   -913.507214
PC43   7847.165824  17006.892477 -20690.185776   -758.805174
PC44 -16996.068868  20005.714389   9406.189958    219.795849
PC45 -27603.211530  -1394.985266  -3912.109690    456.865115
PC46   3581.128069 -16104.659251 -22495.434043    242.127092
PE01  25431.987469  14587.678090   4069.342865  -1121.059705
PE02 -25495.443236 -14524.925132  -3946.703466    223.425663
PE03 -15143.189662 -17041.827417 -18866.127249   -437.737362
PE04  16643.826200  -4674.067099  24039.046183   -784.210102
PE05  -4721.481309 -29109.138285  -2525.320143   -276.008481
PE07  -8312.178230  24080.040605 -15072.438429   -545.227141
PE08 -16402.706516   5140.614386 -24091.057690   5992.164125
PE09   8026.454199 -24198.830150  15034.552075   5646.708483
PE11  18950.395371 -20971.267231   8810.824472   5900.729572
PE12  25699.973022 -10169.469578 -10631.246379   5179.446977
PE13 -19169.089246  20906.956243  -8447.944627    417.239926
PE14    656.107637  29566.529232  -6158.380527  -1452.738195
PE15 -25633.186822  10300.709325  10620.891087    810.915148
PE18   8599.671577 -24779.356765  -5287.369182  -1590.779093
PE19  14236.589633  19156.714184  17519.307450    292.585730
PE21  10892.219752  19376.052257  19546.317043   -668.465915
PE24  11475.755795 -12724.585374 -24145.710687   -933.905251
PE25 -10687.472237 -19369.015495 -19662.240631   -535.740439
PE26   -582.707950  18946.484674 -22736.114024   1738.106083
PE27 -10573.695487  13193.773681  24298.777723    -45.920293
PE30 -26071.053004  -1555.071756  13931.235671   2894.838138
PE31  25665.360703    704.395826 -14724.161278   -481.801896
PE33  17002.063050   6335.837439 -23390.367755   -469.290402
PE36   1447.262772 -19186.382322  22494.773960   -215.650105
PG01  -3668.235226  16628.123316 -20548.538796    670.422844
PG02  21973.769332 -14756.940965   3161.890322   -609.331925
PG03   6076.433209  19050.172185 -17622.653387   -181.218744
PG04   -642.341475  26265.762141   3682.846917   -198.604683
PG05   8837.856091 -12424.540539  21597.610501    -43.796120
PG06  24706.172145  -5458.239499  -8125.627042     22.409377
PG07  11850.275545  11313.521578  21339.077327    168.054970
PG08  -6191.213055  24852.650795   6385.216531    -23.626935
PG09   7974.791236  21477.314111  13361.793175   -349.092253
PG10 -23448.023493 -10878.631975  -6577.304008   -134.575666
PG12  -3094.370545 -18920.622856 -18695.904844    -49.664782
PG13  13029.897392 -19448.711975  12283.471044    139.930173
PG14  22902.963509  11740.561531  -6646.486479     76.154456
PG15   3424.607953 -25481.765969   5512.826398   -145.068854
PG16 -14066.139591   7006.919981  21236.538735   -335.134896
PG17  13224.809503   7679.385908 -21289.649306    452.377609
PG18 -14529.053439  -8929.341627  20368.226508    348.392191
PG19  15334.326912  -2054.721022 -21858.980774      8.283668
PG20   4640.243379 -15136.231368  21298.957173    521.557849
PG21 -11345.853842  18154.793078 -14687.850887    122.446672
PG22  -3410.953485  15792.166840 -20917.873218   -598.368828
PG23 -20085.339189 -16888.115065   4257.185913    100.901830
PG24   7828.321333 -18764.202776 -17130.876724    112.929893
PG25 -15018.207235 -19510.516868 -10567.915249    148.810353
PG26 -21116.165512    500.827412  16202.554817     93.435407
PG27 -12079.225815  17515.835219  15480.749599   -140.723319
PG28  21948.913948   8138.345802 -11819.231766    561.065680
PG29  -5345.226689 -22285.138425  13330.888723   -357.694272
PG30  22146.206101   2196.018238  14734.018964   -434.136587
PG31 -25367.819547   6981.190183  -5228.569681   -120.863172
PG32 -14817.922348  -4495.028839 -21479.401120     19.723555
PJ01 -20397.248184  23183.056903 -24137.269788   -389.018778
PJ02 -27953.524390  21677.521773  27850.890130     -0.101127
PJ03 -31776.649471  26563.902819  12769.335991     -7.030419
PR01   9688.672455  -5468.493544  22960.332641     80.339857
PR02  -2294.561751 -21876.788692  13012.149142    480.954373
PR03 -11411.954459 -22476.212403  -4027.913087     37.036601
PR04 -13809.710243 -10496.183243 -18672.305785     89.584291
PR05  -8598.938178   7285.323131 -22865.524117     72.884722
PR07  11665.324768  22146.134937   4842.657835    -42.399692
PR08  13928.866711  10303.910724  18773.454363    -59.314176
PR09  -3407.781246  10909.280905  22817.332919     -4.003078
PR11  25024.118572   4150.174685   2772.126693     -8.767717
PR12  20369.407272  -4474.513880 -14649.272530    234.032300
PR13   4213.309012 -10505.795979 -22873.789725    -55.680197
PR14 -15214.362797 -10440.495957 -17591.069585     64.926885
PR15 -25049.110561  -4267.790066  -2197.898166    103.488506
PR16 -19646.116209   5505.575684  15372.008680    -15.860747
PR17  -2001.215860 -13444.350325  21578.185117    429.365767
PR18 -13293.058596   1159.628883  21734.887268     78.715923
PR19 -18056.351206  14223.308453  11055.146424   -146.198924
PR20 -11966.942891  20681.202516  -8866.659417    -50.208527
PR21   2805.397705  12547.737307 -22041.689526   -213.641083
PR22  13881.640530  -2206.403696 -21331.853759   -115.768069
PR24  11056.767298 -20946.722772   9464.736985     45.056239
EOF
